ONEWEB-0706             
1 61611U 24188T   25285.89026204  .00000583  00000+0  16335-2 0  9996
2 61611  87.8749  85.5730 0002294  92.2385 267.9005 13.10375943 50992
ONEWEB-0707             
1 61612U 24188U   25286.20233331  .00000644  00000+0  18078-2 0  9998
2 61612  87.8764  85.4800 0002264  94.7758 265.3628 13.10375270 50979
ONEWEB-0708             
1 61613U 24188V   25286.14423297  .00000221  00000+0  59759-3 0  9997
2 61613  87.8760  85.5337 0002338  84.6713 275.4682 13.10369077 50940
